[{"OBJECT_NAME":"ONEWEB-0607","OBJECT_ID":"2022-166AF","EPOCH":"2026-03-09T23:08:11.377248","MEAN_MOTION":13.21825855,"ECCENTRICITY":0.00014688,"INCLINATION":87.917,"RA_OF_ASC_NODE":263.7506,"ARG_OF_PERICENTER":92.8694,"MEAN_ANOMALY":267.2608,"EPHEMERIS_TYPE":0,"CLASSIFICATION_TYPE":"U","NORAD_CAT_ID":54671,"ELEMENT_SET_NO":999,"REV_AT_EPOCH":15843,"BSTAR":0.00014238088,"MEAN_MOTION_DOT":7.2e-7,"MEAN_MOTION_DDOT":0},{"OBJECT_NAME":"SL-14 DEB","OBJECT_ID":"1991-056DR","EPOCH":"2026-03-08T19:43:50.264256","MEAN_MOTION":13.20393138,"ECCENTRICITY":0.00134558,"INCLINATION":82.5986,"RA_OF_ASC_NODE":214.3324,"ARG_OF_PERICENTER":222.1757,"MEAN_ANOMALY":137.8333,"EPHEMERIS_TYPE":0,"CLASSIFICATION_TYPE":"U","NORAD_CAT_ID":47091,"ELEMENT_SET_NO":999,"REV_AT_EPOCH":25739,"BSTAR":0.0015116276,"MEAN_MOTION_DOT":6.24e-6,"MEAN_MOTION_DDOT":0}]
